{"type": "FeatureCollection", "features": [ {"type": "Feature", "properties": {"norad_id": 40664, "name": "SKY MEXICO-1", "group": "intelsat", "lat": -0.020228406696374223, "lon": -105.93713754013275, "alt_km": 35775.46470554335, "timestamp": "2025-12-09T16:56:36.248192+00:00", "meta": {"OBJECT_NAME": "SKY MEXICO-1", "OBJECT_ID": "2015-026B", "EPOCH": "2025-12-09T10:28:17.474304", "MEAN_MOTION": 1.0027078, "ECCENTRICITY": 0.0002748, "INCLINATION": 0.0249, "RA_OF_ASC_NODE": 61.7054, "ARG_OF_PERICENTER": 212.5019, "MEAN_ANOMALY": 242.5266, "EPHEMERIS_TYPE": 0, "CLASSIFICATION_TYPE": "U", "NORAD_CAT_ID": 40664, "ELEMENT_SET_NO": 999, "REV_AT_EPOCH": 3855, "BSTAR": 0, "MEAN_MOTION_DOT": -2.32e-06, "MEAN_MOTION_DDOT": 0}, "tle": {"line1": "1 40664U 15026B   25343.43631336 -.00000232  00000+0  00000+0 0  9996", "line2": "2 40664   0.0249  61.7054 0002748 212.5019 242.5266  1.00270780 38554"}}, "geometry": {"type": "Point", "coordinates": [-105.93713754013275, -0.020228406696374223]}}, {"type": "Feature", "properties": {"norad_id": 40874, "name": "INTELSAT 34 (IS-34)", "group": "intelsat", "lat": -0.020515476860876854, "lon": -82.64750610345428, "alt_km": 35787.20939652666, "timestamp": "2025-12-09T16:56:36.248204+00:00", "meta": {"OBJECT_NAME": "INTELSAT 34 (IS-34)", "OBJECT_ID": "2015-039A", "EPOCH": "2025-12-09T09:53:06.375840", "MEAN_MOTION": 1.00270243, "ECCENTRICITY": 5.86e-05, "INCLINATION": 0.0134, "RA_OF_ASC_NODE": 307.0309, "ARG_OF_PERICENTER": 224.8064, "MEAN_ANOMALY": 359.3494, "EPHEMERIS_TYPE": 0, "CLASSIFICATION_TYPE": "U", "NORAD_CAT_ID": 40874, "ELEMENT_SET_NO": 999, "REV_AT_EPOCH": 3772, "BSTAR": 0, "MEAN_MOTION_DOT": -2.83e-06, "MEAN_MOTION_DDOT": 0}, "tle": {"line1": "1 40874U 15039A   25343.41187935 -.00000283  00000+0  00000+0 0  9998", "line2": "2 40874   0.0134 307.0309 0000586 224.8064 359.3494  1.00270243 37725"}}, "geometry": {"type": "Point", "coordinates": [-82.64750610345428, -0.020515476860876854]}}, {"type": "Feature", "properties": {"norad_id": 41581, "name": "INTELSAT 31 (IS-31)", "group": "intelsat", "lat": -0.021747309681572513, "lon": -122.22305086903685, "alt_km": 35779.31716522429, "timestamp": "2025-12-09T16:56:36.248216+00:00", "meta": {"OBJECT_NAME": "INTELSAT 31 (IS-31)", "OBJECT_ID": "2016-035A", "EPOCH": "2025-12-09T11:18:23.865120", "MEAN_MOTION": 1.00269264, "ECCENTRICITY": 0.0001865, "INCLINATION": 0.0173, "RA_OF_ASC_NODE": 272.0152, "ARG_OF_PERICENTER": 307.5396, "MEAN_ANOMALY": 293.4379, "EPHEMERIS_TYPE": 0, "CLASSIFICATION_TYPE": "U", "NORAD_CAT_ID": 41581, "ELEMENT_SET_NO": 999, "REV_AT_EPOCH": 3478, "BSTAR": 0, "MEAN_MOTION_DOT": -1.48e-06, "MEAN_MOTION_DDOT": 0}, "tle": {"line1": "1 41581U 16035A   25343.47110955 -.00000148  00000+0  00000+0 0  9995", "line2": "2 41581   0.0173 272.0152 0001865 307.5396 293.4379  1.00269264 34783"}}, "geometry": {"type": "Point", "coordinates": [-122.22305086903685, -0.021747309681572513]}}, {"type": "Feature", "properties": {"norad_id": 41747, "name": "INTELSAT 36 (IS-36)", "group": "intelsat", "lat": 0.02336553681294555, "lon": 41.34857449924287, "alt_km": 35786.09797283457, "timestamp": "2025-12-09T16:56:36.248228+00:00", "meta": {"OBJECT_NAME": "INTELSAT 36 (IS-36)", "OBJECT_ID": "2016-053A", "EPOCH": "2025-12-09T10:28:32.982240", "MEAN_MOTION": 1.00269892, "ECCENTRICITY": 0.0001412, "INCLINATION": 0.0115, "RA_OF_ASC_NODE": 359.5133, "ARG_OF_PERICENTER": 316.9203, "MEAN_ANOMALY": 347.6248, "EPHEMERIS_TYPE": 0, "CLASSIFICATION_TYPE": "U", "NORAD_CAT_ID": 41747, "ELEMENT_SET_NO": 999, "REV_AT_EPOCH": 3404, "BSTAR": 0, "MEAN_MOTION_DOT": -2.2e-07, "MEAN_MOTION_DDOT": 0}, "tle": {"line1": "1 41747U 16053A   25343.43649285 -.00000022  00000+0  00000+0 0  9999", "line2": "2 41747   0.0115 359.5133 0001412 316.9203 347.6248  1.00269892 34045"}}, "geometry": {"type": "Point", "coordinates": [41.34857449924287, 0.02336553681294555]}}, {"type": "Feature", "properties": {"norad_id": 41945, "name": "INTELSAT 32E (IS-32E)", "group": "intelsat", "lat": -0.028019348020078445, "lon": -70.34056203518487, "alt_km": 35786.066521849905, "timestamp": "2025-12-09T16:56:36.248239+00:00", "meta": {"OBJECT_NAME": "INTELSAT 32E (IS-32E)", "OBJECT_ID": "2017-007B", "EPOCH": "2025-12-09T09:56:36.041856", "MEAN_MOTION": 1.0026938, "ECCENTRICITY": 4.32e-05, "INCLINATION": 0.0267, "RA_OF_ASC_NODE": 67.7306, "ARG_OF_PERICENTER": 288.2738, "MEAN_ANOMALY": 188.377, "EPHEMERIS_TYPE": 0, "CLASSIFICATION_TYPE": "U", "NORAD_CAT_ID": 41945, "ELEMENT_SET_NO": 999, "REV_AT_EPOCH": 3232, "BSTAR": 0, "MEAN_MOTION_DOT": -2.67e-06, "MEAN_MOTION_DDOT": 0}, "tle": {"line1": "1 41945U 17007B   25343.41430604 -.00000267  00000+0  00000+0 0  9991", "line2": "2 41945   0.0267  67.7306 0000432 288.2738 188.3770  1.00269380 32329"}}, "geometry": {"type": "Point", "coordinates": [-70.34056203518487, -0.028019348020078445]}}, {"type": "Feature", "properties": {"norad_id": 42818, "name": "INTELSAT 35E (IS-35E)", "group": "intelsat", "lat": -0.02383485267329276, "lon": -61.64785970470372, "alt_km": 35778.61320858471, "timestamp": "2025-12-09T16:56:36.248251+00:00", "meta": {"OBJECT_NAME": "INTELSAT 35E (IS-35E)", "OBJECT_ID": "2017-041A", "EPOCH": "2025-12-09T09:59:05.804160", "MEAN_MOTION": 1.00269353, "ECCENTRICITY": 0.0002308, "INCLINATION": 0.0186, "RA_OF_ASC_NODE": 333.6977, "ARG_OF_PERICENTER": 291.5297, "MEAN_ANOMALY": 288.4535, "EPHEMERIS_TYPE": 0, "CLASSIFICATION_TYPE": "U", "NORAD_CAT_ID": 42818, "ELEMENT_SET_NO": 999, "REV_AT_EPOCH": 3091, "BSTAR": 0, "MEAN_MOTION_DOT": -2.36e-06, "MEAN_MOTION_DDOT": 0}, "tle": {"line1": "1 42818U 17041A   25343.41603940 -.00000236  00000+0  00000+0 0  9990", "line2": "2 42818   0.0186 333.6977 0002308 291.5297 288.4535  1.00269353 30913"}}, "geometry": {"type": "Point", "coordinates": [-61.64785970470372, -0.02383485267329276]}}, {"type": "Feature", "properties": {"norad_id": 42950, "name": "INTELSAT 37E (IS-37E)", "group": "intelsat", "lat": -0.024535822369163286, "lon": -45.126640795575845, "alt_km": 35779.459391964025, "timestamp": "2025-12-09T16:56:36.248263+00:00", "meta": {"OBJECT_NAME": "INTELSAT 37E (IS-37E)", "OBJECT_ID": "2017-059A", "EPOCH": "2025-12-09T10:03:50.347872", "MEAN_MOTION": 1.00270735, "ECCENTRICITY": 0.0003379, "INCLINATION": 0.0166, "RA_OF_ASC_NODE": 10.0825, "ARG_OF_PERICENTER": 243.6968, "MEAN_ANOMALY": 317.5906, "EPHEMERIS_TYPE": 0, "CLASSIFICATION_TYPE": "U", "NORAD_CAT_ID": 42950, "ELEMENT_SET_NO": 999, "REV_AT_EPOCH": 3016, "BSTAR": 0, "MEAN_MOTION_DOT": -1.39e-06, "MEAN_MOTION_DDOT": 0}, "tle": {"line1": "1 42950U 17059A   25343.41933273 -.00000139  00000+0  00000+0 0  9993", "line2": "2 42950   0.0166  10.0825 0003379 243.6968 317.5906  1.00270735 30167"}}, "geometry": {"type": "Point", "coordinates": [-45.126640795575845, -0.024535822369163286]}}, {"type": "Feature", "properties": {"norad_id": 43632, "name": "AZERSPACE 2 (IS-38)", "group": "intelsat", "lat": 0.022422793507285904, "lon": 17.96369080797425, "alt_km": 35789.54395770195, "timestamp": "2025-12-09T16:56:36.248275+00:00", "meta": {"OBJECT_NAME": "AZERSPACE 2 (IS-38)", "OBJECT_ID": "2018-074A", "EPOCH": "2025-12-09T05:13:27.067296", "MEAN_MOTION": 1.00270316, "ECCENTRICITY": 0.0001557, "INCLINATION": 0.0166, "RA_OF_ASC_NODE": 339.3776, "ARG_OF_PERICENTER": 280.4096, "MEAN_ANOMALY": 301.8968, "EPHEMERIS_TYPE": 0, "CLASSIFICATION_TYPE": "U", "NORAD_CAT_ID": 43632, "ELEMENT_SET_NO": 999, "REV_AT_EPOCH": 2654, "BSTAR": 0, "MEAN_MOTION_DOT": 1.39e-06, "MEAN_MOTION_DDOT": 0}, "tle": {"line1": "1 43632U 18074A   25343.21767439  .00000139  00000+0  00000+0 0  9995", "line2": "2 43632   0.0166 339.3776 0001557 280.4096 301.8968  1.00270316 26540"}}, "geometry": {"type": "Point", "coordinates": [17.96369080797425, 0.022422793507285904]}}, {"type": "Feature", "properties": {"norad_id": 43633, "name": "HORIZONS-3E", "group": "intelsat", "lat": -0.02279104703577054, "lon": 141.84370097995216, "alt_km": 35791.294758437056, "timestamp": "2025-12-09T16:56:36.248287+00:00", "meta": {"OBJECT_NAME": "HORIZONS-3E", "OBJECT_ID": "2018-074B", "EPOCH": "2025-12-09T10:57:07.744032", "MEAN_MOTION": 1.00268764, "ECCENTRICITY": 0.0001231, "INCLINATION": 0.0427, "RA_OF_ASC_NODE": 176.8611, "ARG_OF_PERICENTER": 112.2955, "MEAN_ANOMALY": 122.5859, "EPHEMERIS_TYPE": 0, "CLASSIFICATION_TYPE": "U", "NORAD_CAT_ID": 43633, "ELEMENT_SET_NO": 999, "REV_AT_EPOCH": 2643, "BSTAR": 0, "MEAN_MOTION_DOT": -2.8e-07, "MEAN_MOTION_DDOT": 0}, "tle": {"line1": "1 43633U 18074B   25343.45633963 -.00000028  00000+0  00000+0 0  9994", "line2": "2 43633   0.0427 176.8611 0001231 112.2955 122.5859  1.00268764 26437"}}, "geometry": {"type": "Point", "coordinates": [141.84370097995216, -0.02279104703577054]}}, {"type": "Feature", "properties": {"norad_id": 44333, "name": "AT&T T-16", "group": "intelsat", "lat": -0.010575439021571157, "lon": -128.01462270736752, "alt_km": 35786.45340277559, "timestamp": "2025-12-09T16:56:36.248299+00:00", "meta": {"OBJECT_NAME": "AT&T T-16", "OBJECT_ID": "2019-034A", "EPOCH": "2025-12-09T12:26:50.356032", "MEAN_MOTION": 1.00268587, "ECCENTRICITY": 5.42e-05, "INCLINATION": 0.0236, "RA_OF_ASC_NODE": 62.6366, "ARG_OF_PERICENTER": 92.983, "MEAN_ANOMALY": 8.7393, "EPHEMERIS_TYPE": 0, "CLASSIFICATION_TYPE": "U", "NORAD_CAT_ID": 44333, "ELEMENT_SET_NO": 999, "REV_AT_EPOCH": 2373, "BSTAR": 0, "MEAN_MOTION_DOT": -1.13e-06, "MEAN_MOTION_DDOT": 0}, "tle": {"line1": "1 44333U 19034A   25343.51863838 -.00000113  00000+0  00000+0 0  9997", "line2": "2 44333   0.0236  62.6366 0000542  92.9830   8.7393  1.00268587 23733"}}, "geometry": {"type": "Point", "coordinates": [-128.01462270736752, -0.010575439021571157]}}]}